,name,address,city,state
0,Bravo! Cucina Italiana,1701 MAPLE AVE,Evanston,IL
1,Dunkin' Donuts Baskin-Robbins,1900 DEMPSTER ST D,Evanston,IL
2,Mandarin House,819 NOYES ST,Evanston,IL
3,Dunkin' Donuts,1612 BENSON AVE,Evanston,IL
4,Dunkin' Donuts & Baskin-Robbins,2658 GREEN BAY RD,Evanston,IL
5,Ted's Snack Shop,1824 CRAIN ST,Evanston,IL
6,Old Neighborhood Grill,2902 CENTRAL ST,Evanston,IL
7,Oakton & Dodge Shell,500 DODGE AVE,Evanston,IL
8,Aldi,2211 OAKTON ST,Evanston,IL
9,CJE Senior Life,1015 HOWARD ST,Evanston,IL
10,Dar-Us-Sunnah Masjid & Community Center,2045 BROWN AVE,Evanston,IL
11,Phi Delta Theta,2347 SHERIDAN RD,Evanston,IL
12,The Mather,425 DAVIS ST,Evanston,IL
13,Pop 'N Go Nuts,2016 CENTRAL ST,Evanston,IL
14,Subway #46751,1900 DEMPSTER ST C,Evanston,IL
15,Phoenix Inn Chinese Restaurant,608 DAVIS ST,Evanston,IL
16,Edzo's Burger Shop,1571 SHERMAN AVE,Evanston,IL
17,Subway #3020,1551 SHERMAN AVE,Evanston,IL
18,IHOP #1203,100 ASBURY AVE,Evanston,IL
19,Bill's Drive-In,120 ASBURY AVE,Evanston,IL
20,Lupita's,700 MAIN ST,Evanston,IL
21,Mustard's Last Stand,1613 CENTRAL ST,Evanston,IL
22,Vinic Wine Company,1509 CHICAGO AVE,Evanston,IL
23,Target Store T-927,2209 HOWARD ST,Evanston,IL
24,Peet's Coffee & Tea,1622 CHICAGO AVE,Evanston,IL
25,McDonald's #6867,1919 DEMPSTER ST,Evanston,IL
26,Prairie Joe's,1921 CENTRAL ST,Evanston,IL
27,Cold Stone Creamery,1611 SHERMAN AVE,Evanston,IL
28,Hartigan's Ice Cream Shoppe,2909 CENTRAL ST,Evanston,IL
29,Potbelly Sandwich Works,630 DAVIS ST,Evanston,IL
30,Mary Lou's Place,1215 CHURCH ST,Evanston,IL
31,Symphony's,1945 CENTRAL ST,Evanston,IL
32,Cross-Rhodes,913 1/2 CHICAGO AVE,Evanston,IL
33,Evanston Grill,1047 CHICAGO AVE B,Evanston,IL
34,Golden Olympic Restaurant,1608 CHICAGO AVE,Evanston,IL
35,Thai Sookdee Restaurant,1016 CHURCH ST,Evanston,IL
36,The Olive Mountain,610 DAVIS ST,Evanston,IL
37,Le Peep #8533,827 CHURCH ST,Evanston,IL
38,Dave's Italian Kitchen,1635 CHICAGO AVE,Evanston,IL
39,Clarke's,720 CLARK ST,Evanston,IL
40,Buffalo Joe's,812 CLARK ST,Evanston,IL
41,Little Island,2600 CRAWFORD AVE,Evanston,IL
42,Davis Street Fishmarket,501 DAVIS ST,Evanston,IL
43,Sher-Main Grill,802 MAIN ST,Evanston,IL
44,Hecky's Bar B Q,1902 GREEN BAY RD,Evanston,IL
45,Buffalo Joe's Seafood,2000 GREEN BAY RD,Evanston,IL
46,Sarkis Cafe,2632 GROSS POINT RD,Evanston,IL
47,Brothers K Coffee House,500 MAIN ST,Evanston,IL
48,Oceanique,505 MAIN ST,Evanston,IL
49,Kuni's Japanese Restaurant,511 MAIN ST,Evanston,IL
50,Lucky Platter,514 MAIN ST,Evanston,IL
51,Las Palmas of Evanston,817 UNIVERSITY PL,Evanston,IL
52,D. D. Dogs,825 NOYES ST,Evanston,IL
53,Great Harvest Bread Co.,2126 CENTRAL ST,Evanston,IL
54,Chicken Shack,1925 RIDGE AVE,Evanston,IL
55,Tommy Nevin's Pub,1450 SHERMAN AVE,Evanston,IL
56,Best Western University Plaza,1501 SHERMAN AVE,Evanston,IL
57,Taco Bell Express,1743 SHERMAN AVE,Evanston,IL
58,Evanston Hospital,1301 CENTRAL ST,Evanston,IL
59,Fleetwood Jourdain Community Center,1655 FOSTER ST,Evanston,IL
60,Levy Senior Center,300 DODGE AVE,Evanston,IL
61,The Woman's Club of Evanston,1702 CHICAGO AVE,Evanston,IL
62,Family Focus,2010 DEWEY AVE,Evanston,IL
63,Tag's Bakery,2010 CENTRAL ST,Evanston,IL
64,Bennison's Bakery,1000 DAVIS ST,Evanston,IL
65,Foodstuffs,2106 CENTRAL ST,Evanston,IL
66,J. D. Mills Health Food,"635 CHICAGO AVE, UNIT 4",Evanston,IL
67,Jewel Osco #3428,1128 CHICAGO AVE,Evanston,IL
68,The Salvation Army,1403 SHERMAN AVE,Evanston,IL
69,Soup At Six,933 CHICAGO AVE,Evanston,IL
70,Total Child Preschool & Childcare Center,516 CHURCH ST,Evanston,IL
71,Kikka,1640 CHICAGO AVE,Evanston,IL
72,Warren W. Cherry Preschool,1418 LAKE ST,Evanston,IL
73,McDonald's #82,1117 HOWARD ST,Evanston,IL
74,Creative Play,1701 MAIN ST,Evanston,IL
75,NorthShore University HealthSystem Child Development Center,1000 CENTRAL ST 100,Evanston,IL
76,Doorway To Learning,1500 MCDANIEL AVE,Evanston,IL
77,Sips On Sherman,1741 SHERMAN AVE,Evanston,IL
78,Jewish Reconstructionist Congregation,303 DODGE AVE,Evanston,IL
79,Chili's Grill and Bar #859,1765 MAPLE AVE,Evanston,IL
80,Oakton Shell,2494 OAKTON ST,Evanston,IL
81,7-Eleven #27070B,847 DODGE AVE,Evanston,IL
82,Green Bay Car Wash,1950 GREEN BAY RD,Evanston,IL
83,Belgian Chocolatier Piron,509 MAIN ST A,Evanston,IL
84,Delta Discount,800 MAIN ST,Evanston,IL
85,D & D Finer Foods,825 NOYES ST,Evanston,IL
86,Al's Deli,914 NOYES ST,Evanston,IL
87,Evanston Gas & Food,101 RIDGE AVE,Evanston,IL
88,Sarpino's Pizza,2428 MAIN ST,Evanston,IL
89,Zeta Tau Alpha,710 EMERSON ST,Evanston,IL
90,Wingstop,"2434 MAIN ST, SUITE F",Evanston,IL
91,Siam Splendour,1125 EMERSON ST,Evanston,IL
92,7-Eleven #33888A,817 EMERSON ST,Evanston,IL
93,Union Pizzeria,1245 CHICAGO AVE,Evanston,IL
94,Papa John's #1012,1743 BENSON AVE,Evanston,IL
95,NU Sodexo Great Room,600 HAVEN ST,Evanston,IL
96,St. Athanasius School,2510 ASHLAND AVE,Evanston,IL
97,Valero,443 ASBURY AVE,Evanston,IL
98,Sam's Club #6444,2450 MAIN ST,Evanston,IL
99,Evanston Hospital,2650 RIDGE AVE,Evanston,IL
100,Saint Francis Hospital,355 RIDGE AVE,Evanston,IL
101,Albany Care,901 MAPLE AVE,Evanston,IL
102,Dobson Plaza,120 DODGE AVE,Evanston,IL
103,Greenwood Care,1406 CHICAGO AVE,Evanston,IL
104,Evanston Nursing & Rehab Center,1300 OAK AVE,Evanston,IL
105,Shore Homes East,503 MICHIGAN AVE,Evanston,IL
106,King Home,1555 OAK AVE,Evanston,IL
107,Three Crowns Park,2323 MCDANIEL AVE,Evanston,IL
108,Howard Marathon,555 HOWARD ST,Evanston,IL
109,Evanston Main Foods,835 MAIN ST,Evanston,IL
110,"Barnes & Noble Booksellers, Inc.",1630 SHERMAN AVE,Evanston,IL
111,Now We're Cookin',"1601 PAYNE ST, UNIT C",Evanston,IL
112,Bistro Bordeaux,618 CHURCH ST,Evanston,IL
113,CVS/Pharmacy #8760,3333 CENTRAL ST,Evanston,IL
114,Teen Baby Nursery,2010 DEWEY AVE,Evanston,IL
115,Bat 17,1709 BENSON AVE,Evanston,IL
116,Quince Restaurant,1625 HINMAN AVE,Evanston,IL
117,Greek Fire Grill,1625 CHICAGO AVE,Evanston,IL
118,Panino's Cafe & Bar,1968 DEMPSTER ST,Evanston,IL
119,Piccolatte,600 MAIN ST,Evanston,IL
120,Addis Abeba Restaurant,1322 CHICAGO AVE,Evanston,IL
121,Siam Paragon,503 MAIN ST,Evanston,IL
122,Trattoria D.O.C.,706 MAIN ST,Evanston,IL
123,Pinto Noodles and Rice,1931 CENTRAL ST,Evanston,IL
124,Wiener and Still Champion,802 DEMPSTER ST,Evanston,IL
125,Tein Li Chow,2485 HOWARD ST,Evanston,IL
126,Celtic Knot Public House,626 CHURCH ST,Evanston,IL
127,Cosi,1740 SHERMAN AVE,Evanston,IL
128,Treasure Ocean,2400 SHERIDAN RD,Evanston,IL
129,Northstar Coffee,2201 OAKTON ST,Evanston,IL
130,Food 4 Less Midwest #558,2400 MAIN ST,Evanston,IL
131,Mt. Everest Restaurant,630 CHURCH ST,Evanston,IL
132,Chipotle Mexican Grill #87,711 CHURCH ST,Evanston,IL
133,Bluestone Restaurant,1932 CENTRAL ST,Evanston,IL
134,Prairie Moon,1502 SHERMAN AVE,Evanston,IL
135,Dozika,601 DEMPSTER ST,Evanston,IL
136,Noodles & Company #606,930 CHURCH ST,Evanston,IL
137,Rollin' To Go,910 NOYES ST,Evanston,IL
138,Alpha Chi Omega,637 UNIVERSITY PL,Evanston,IL
139,Alpha Phi,701 UNIVERSITY PL,Evanston,IL
140,Chi Omega,1870 ORRINGTON AVE,Evanston,IL
141,Delta Delta Delta,625 UNIVERSITY PL,Evanston,IL
142,Delta Gamma,618 EMERSON ST,Evanston,IL
143,Delta Zeta,717 UNIVERSITY PL,Evanston,IL
144,Gamma Phi Beta,640 EMERSON ST,Evanston,IL
145,Kappa Alpha Theta,619 UNIVERSITY PL,Evanston,IL
146,Kappa Delta,711 UNIVERSITY PL,Evanston,IL
147,Pi Beta Phi,636 EMERSON ST,Evanston,IL
148,1835 Hinman,1835 HINMAN AVE,Evanston,IL
149,Allison Hall,1820 CHICAGO AVE,Evanston,IL
150,Elder Hall,2400 SHERIDAN RD,Evanston,IL
151,Foster Walker Undergrad Complex,1927 ORRINGTON AVE,Evanston,IL
152,Norris University Center,1999 CAMPUS DR,Evanston,IL
153,Sargent Hall,2245 SHERIDAN RD,Evanston,IL
154,Willard Residential College,1865 SHERMAN AVE,Evanston,IL
155,Tech Express,2145 SHERIDAN RD,Evanston,IL
156,Allen Center,2169 CAMPUS DR,Evanston,IL
157,Kafe Kellogg,2001 SHERIDAN RD,Evanston,IL
158,Einstein Bros,2200 CAMPUS DR,Evanston,IL
159,Lisa's Cafe,2332 CAMPUS DR,Evanston,IL
160,Plaza Cafe,1970 CAMPUS DR,Evanston,IL
161,Sigma Alpha Epsilon,2325 SHERIDAN RD,Evanston,IL
162,Claire's Korner,1827 EMERSON ST,Evanston,IL
163,Chute Middle School,1400 OAKTON ST,Evanston,IL
164,ETHS,1600 DODGE AVE,Evanston,IL
165,Haven Middle School,2417 PRAIRIE AVE,Evanston,IL
166,King Lab Magnet School,2424 LAKE ST,Evanston,IL
167,Nichols Middle School,800 GREENLEAF ST,Evanston,IL
168,Chiaravalle Montessori School,425 DEMPSTER ST,Evanston,IL
169,Pope John XXIII School,1120 WASHINGTON ST,Evanston,IL
170,Dawes Elementary School,440 DODGE AVE,Evanston,IL
171,The Barbereux School,3333 CULVER ST,Evanston,IL
172,Dewey Elementary School,1551 WESLEY AVE,Evanston,IL
173,Kingsley Elementary School,2300 GREEN BAY RD,Evanston,IL
174,Lincoln Elementary School,910 FOREST AVE,Evanston,IL
175,Lincolnwood Elementary School,2600 COLFAX ST,Evanston,IL
176,Oakton Elementary School,436 RIDGE AVE,Evanston,IL
177,Orrington Elementary School,2636 ORRINGTON AVE,Evanston,IL
178,Park School,828 MAIN ST,Evanston,IL
179,Washington Elementary School,914 ASHLAND AVE,Evanston,IL
180,Willard Elementary School,2700 HURD AVE,Evanston,IL
181,Starbucks #8667,3330 CENTRAL ST,Evanston,IL
182,Starbucks #241,528 DEMPSTER ST,Evanston,IL
183,Starbucks #2444,519 MAIN ST,Evanston,IL
184,Starbucks #255,2114 CENTRAL ST,Evanston,IL
185,Starbucks #9559,2438 MAIN ST,Evanston,IL
186,Walgreens #4218,900 DODGE AVE,Evanston,IL
187,AFC Sushi @ Jewel Osco 3487,2485 HOWARD ST,Evanston,IL
188,Century Evanston 12 & Cine Arts 6,1715 MAPLE AVE,Evanston,IL
189,Chef's Station,915 DAVIS ST,Evanston,IL
190,Cost Plus World Market,1725 MAPLE AVE,Evanston,IL
191,Cozy Noodles & Rice,1018 DAVIS ST,Evanston,IL
192,CVS/Pharmacy #4778,101 ASBURY AVE,Evanston,IL
193,CVS/Pharmacy #3901,1711 SHERMAN AVE,Evanston,IL
194,Whole Foods Market #314,1640 CHICAGO AVE,Evanston,IL
195,Whole Foods Market #349,1111 CHICAGO AVE,Evanston,IL
196,That Little Mexican Cafe,1010 CHURCH ST,Evanston,IL
197,Tapas Barcelona,1615 CHICAGO AVE,Evanston,IL
198,Steak 'N Shake #470,2209 OAKTON ST,Evanston,IL
199,The Stained Glass,1735 BENSON AVE,Evanston,IL
200,The Spice House,1941 CENTRAL ST,Evanston,IL
201,Siam Pasta,809 DEMPSTER ST,Evanston,IL
202,Seattle Sutton's Healthy Eating,1424 LAKE ST,Evanston,IL
203,527 Cafe,527 DAVIS ST,Evanston,IL
204,Sea Ranch,518 DEMPSTER ST,Evanston,IL
205,Pizza Hut Delivery #714389,951 HOWARD ST,Evanston,IL
206,Panera Bread #645,1700 SHERMAN AVE,Evanston,IL
207,Open Pantry,821 DEMPSTER ST,Evanston,IL
208,Midwest Montessori #560,926 NOYES ST,Evanston,IL
209,Lou Malnati's Pizzeria,1850 SHERMAN AVE,Evanston,IL
210,Lambda Chi Alpha,2339 SHERIDAN RD,Evanston,IL
211,Koi Chinese & Sushi,624 DAVIS ST,Evanston,IL
212,Joy Yee's Noodles,521 DAVIS ST,Evanston,IL
213,Jewel Osco #3487,2485 HOWARD ST,Evanston,IL
214,Dream About Tea,1011 DAVIS ST,Evanston,IL
215,Dixie Kitchen & Bait Shop,825 CHURCH ST,Evanston,IL
216,Delta Chi,619 COLFAX ST,Evanston,IL
217,Davis Pantry,927 DAVIS ST,Evanston,IL
218,Firehouse Grill,750 CHICAGO AVE,Evanston,IL
219,Einstein Bros Bagels #1399,1745 SHERMAN AVE,Evanston,IL
220,Hilton Garden Inn,1818 MAPLE AVE,Evanston,IL
221,Hunan Spring,635 CHICAGO AVE,Evanston,IL
222,Evanston Post 42,1030 CENTRAL ST,Evanston,IL
223,Sigma Chi,2249 SHERIDAN RD,Evanston,IL
224,Westminster Place,3200 GRANT ST,Evanston,IL
225,Allfresh Food Products,2156 GREEN BAY RD,Evanston,IL
226,Bernard Food,1125 HARTREY AVE,Evanston,IL
227,E-Z Spuds,2223 WASHINGTON ST,Evanston,IL
228,Boys Hope,823 GAFFIELD PL,Evanston,IL
229,Immanuel Lutheran Church,616 LAKE ST,Evanston,IL
230,Alden Estates of Evanston,2520 GROSS POINT RD,Evanston,IL
231,Baby Toddler Nursery,2200 MAIN ST,Evanston,IL
232,Campus Kitchen Project at NU,1820 CHICAGO AVE,Evanston,IL
233,Child Care Center,1840 ASBURY AVE,Evanston,IL
234,Childtime at Saint Francis Hospital,355 RIDGE AVE,Evanston,IL
235,Daniel F. and Ada L. Rice Child + Family Center,1101 WASHINGTON ST,Evanston,IL
236,Early Childhood Program Head Start / Pre-K,1500 MCDANIEL AVE,Evanston,IL
237,Ebenezer A.M.E. Church,1109 EMERSON ST,Evanston,IL
238,First Church of God Christian Life Center,1524 SIMPSON ST,Evanston,IL
239,First Presbyterian Church,1427 CHICAGO AVE,Evanston,IL
240,First United Methodist Church,516 CHURCH ST,Evanston,IL
241,Hill Arboretum Apartments,2040 BROWN AVE,Evanston,IL
242,J & S Food Mart,701 HOWARD ST,Evanston,IL
243,Hillel,629 FOSTER ST,Evanston,IL
244,Toddler Town Day Care,1501 HOWARD ST,Evanston,IL
245,Lake Street Church of Evanston,607 LAKE ST,Evanston,IL
246,KinderCare,2014 DEMPSTER ST,Evanston,IL
247,McGaw YMCA Child Care Center,1420 MAPLE AVE,Evanston,IL
248,Northminster Nursery School,2515 CENTRAL PARK AVE,Evanston,IL
249,Reba Early Learning Center,740 CUSTER AVE,Evanston,IL
250,School For Little Children,1427 CHICAGO AVE,Evanston,IL
251,Second Baptist Church,1717 BENSON AVE,Evanston,IL
252,St. Luke's Episcopal Church,939 HINMAN AVE,Evanston,IL
253,St. Paul Lutheran Church,1004 GREENWOOD ST,Evanston,IL
254,Unitarian Church of Evanston,1330 RIDGE AVE,Evanston,IL
255,Vineyard Christian Fellowship,2495 HOWARD ST,Evanston,IL
256,Dunkin' Donuts,2494 OAKTON ST,Evanston,IL
257,Subway #48042,2494 OAKTON ST,Evanston,IL
258,Crossmark Events,2450 MAIN ST,Evanston,IL
259,Andy's Frozen Custard,719 CHURCH ST,Evanston,IL
260,Citgo,1925 GREEN BAY RD,Evanston,IL
261,Garrett Cafe,2121 SHERIDAN RD,Evanston,IL
262,The Grove of Evanston,500 ASBURY AVE,Evanston,IL
263,Other Brother Coffeehouse,1549 SHERMAN AVE,Evanston,IL
264,Five Guys Burgers & Fries,816 CHURCH ST,Evanston,IL
265,Bar Louie,1520 SHERMAN AVE,Evanston,IL
266,Jimmy John's #44,1729 SHERMAN AVE,Evanston,IL
267,The Mather South,450 DAVIS ST,Evanston,IL
268,Royin Sushi Bar,1930 CENTRAL ST,Evanston,IL
269,Hillside Food Pantry,2727 CRAWFORD AVE,Evanston,IL
270,Subway #46615,3330 CENTRAL ST,Evanston,IL
271,"Few Spirits, LLC",918 CHICAGO AVE,Evanston,IL
272,Subway #46614,1133 EMERSON ST,Evanston,IL
273,Friendship Baptist Church,2201 FOSTER ST,Evanston,IL
274,Boys Hope,827 GAFFIELD PL,Evanston,IL
275,Edible Arrangements,1630 MAPLE AVE,Evanston,IL
276,Pete Miller's Steakhouse,1557 SHERMAN AVE,Evanston,IL
277,Soulwich,1634 ORRINGTON AVE,Evanston,IL
278,Shop Now Food and Grocery,1942 MAPLE AVE,Evanston,IL
279,Pep Boys Auto #1458,1911 GREEN BAY RD,Evanston,IL
280,Old Town Oil Evanston LLC,1924 CENTRAL ST,Evanston,IL
281,Wings Over Evanston,1115 EMERSON ST,Evanston,IL
282,Zoba Noodle Bar,1565 SHERMAN AVE,Evanston,IL
283,Evanston 1st Liquors,1019 DAVIS ST,Evanston,IL
284,Subway,900 CHICAGO AVE,Evanston,IL
285,Grace Lutheran Church,1430 SOUTH BLVD,Evanston,IL
286,Kelly Nails Beauty World,"2304 Main ST, BLDG",Evanston,IL
287,St. James Armenian Church,816 Clark ST,Evanston,IL
288,Spex Mart Inc,1235 DODGE AVE,Evanston,IL
289,GFS Marketplace,2424 OAKTON ST,Evanston,IL
290,ROYCEMORE SCHOOL - CAFETERIA,1200 DAVIS ST,Evanston,IL
291,Sugar & Spice,1205 HARTREY AVE,Evanston,IL
292,27 Live,1012 CHURCH ST,Evanston,IL
293,Subway #53951,724 CLARK ST,Evanston,IL
294,Delta Tau Delta,2317 SHERIDAN RD,Evanston,IL
295,Creperie Saint Germain,1512 SHERMAN AVE,Evanston,IL
296,Curt's Cafe,2922 CENTRAL ST,Evanston,IL
297,Mobil,140 CHICAGO AVE,Evanston,IL
298,Kikka@Whole Foods Evanston South,1111 CHICAGO AVE,Evanston,IL
299,Terra An American Bistro,2676 GREEN BAY AVE,Evanston,IL
300,GNC,812 DAVIS ST,Evanston,IL
301,Peeled Inc,940 CHURCH ST,Evanston,IL
302,Papa Romeo's Pizza,1168 DODGE AVE,Evanston,IL
303,World of Beer,1601 SHERMAN AVE,Evanston,IL
304,Found Restaurant,1631 CHICAGO AVE,Evanston,IL
305,Company,1307 CHICAGO AVE,Evanston,IL
306,Unity Nursery School,827 FOSTER ST,Evanston,IL
307,Babylon Discount Food,1618 EMERSON ST,Evanston,IL
308,Planet Fitness,2410 MAIN ST,Evanston,IL
309,Cheesie's Pub & Grub,622 DAVIS ST,Evanston,IL
310,Burger King #9067,1829 DEMPSTER ST,Evanston,IL
311,Subway,1939 CENTRAL ST,Evanston,IL
312,Faith Christian Academy,1932 DEWEY AVE,Evanston,IL
313,"B.C.B.C. Coffee Lab, LLC",922 NOYES ST,Evanston,IL
314,The Supreme Burrito #1,843 DODGE AVE,Evanston,IL
315,Zeta Beta Tau Fraternity,2251 SHERIDAN RD,Evanston,IL
316,Las Marias Inc,1639 ORRINGTON AVE,Evanston,IL
317,Bonsai Cafe,2916 CENTRAL ST,Evanston,IL
318,The Wine Goddess,702 MAIN ST,Evanston,IL
319,Upstairs Cafe,1826 CENTRAL ST,Evanston,IL
320,Coast Sushi Central,2545 PRAIRIE AVE,Evanston,IL
321,Walgreens #15364,635 CHICAGO AVE,Evanston,IL
322,The Merion,1611 CHICAGO AVE 1,Evanston,IL
323,Forever Yogurt Evanston LLC,1739 SHERMAN AVE,Evanston,IL
324,Subway,845 DODGE AVE,Evanston,IL
325,Farmhouse Tavern,703 CHURCH ST,Evanston,IL
326,Temperance Beer Company LLC,2000 DEMPSTER ST,Evanston,IL
327,Chicago - Main Newstand,860 CHICAGO AVE,Evanston,IL
328,Naf Naf Grill,1629 ORRINGTON AVE,Evanston,IL
329,La Macchina Cafe,1620 ORRINGTON AVE,Evanston,IL
330,Hewn Bakery LLC,810 DEMPSTER ST,Evanston,IL
331,Marshall's #245,2400 MAIN ST,Evanston,IL
332,Norris Center Bookstore #668,1999 CAMPUS DR,Evanston,IL
333,7-Eleven #33961B,817 DAVIS ST,Evanston,IL
334,DMK Burger & Fish Bar,815 NOYES ST,Evanston,IL
335,Trader Joe's #702,1211 CHICAGO AVE,Evanston,IL
336,Kafein,1621 CHICAGO AVE,Evanston,IL
337,Walsh Natural Health LLC,2116 1/2 CENTRAL ST,Evanston,IL
338,New Lucky Main Pantry,510 MAIN ST,Evanston,IL
339,Meez Meals,1459 ELMWOOD AVE,Evanston,IL
340,Hilton Orrington,1710 ORRINGTON AVE,Evanston,IL
341,Olive Mediterranean Grill,1726 SHERMAN AVE,Evanston,IL
342,Frio Gelato,1701 SIMPSON ST,Evanston,IL
343,Flat Top Grill,707 CHURCH ST,Evanston,IL
344,Leonida's Chocolates,1907 CENTRAL ST,Evanston,IL
345,In Grape Company LLC,"828 DAVIS ST, SUITE LL5",Evanston,IL
346,Peckish Pig Restaurant & Brewery,623 HOWARD ST,Evanston,IL
347,Smylie Brothers Brewing Company,1615 OAK AVE,Evanston,IL
348,Bottle and Bottega,1016 DAVIS ST,Evanston,IL
349,Tomate Fresh Kitchen,914 1/2 NOYES ST,Evanston,IL
350,Pi Kappa Alpha,2313 SHERIDAN RD,Evanston,IL
351,Emerson Grill,1608 EMERSON ST,Evanston,IL
352,Starbucks #3243,1734 SHERMAN AVE,Evanston,IL
353,Homestead Meats & Deli,1305 CHICAGO AVE,Evanston,IL
354,Jilly's Cafe,2614 GREEN BAY RD,Evanston,IL
355,Delta Upsilon,2307 SHERIDAN RD,Evanston,IL
356,Orangetheory Fitness,2800 CENTRAL ST,Evanston,IL
357,Lyfe Kitchen,1603 ORRINGTON AVE,Evanston,IL
358,Max's Mini Mart,957 HOWARD ST,Evanston,IL
359,Boltwood,804 DAVIS ST,Evanston,IL
360,Brew Camp Inc,821 CHICAGO AVE 1st Floor,Evanston,IL
361,Just Turkey,2430 MAIN ST,Evanston,IL
362,Eurest Dining Services,1560 SHERMAN AVE,Evanston,IL
363,Office Max #0297,2255 HOWARD ST,Evanston,IL
364,Tutti Frutti Yogurt,809 DAVIS ST,Evanston,IL
365,Bangers and Lace,810 GROVE ST,Evanston,IL
366,Lillian's,1806 DEMPSTER ST,Evanston,IL
367,Mumbia Indian Grill,1728 SHERMAN AVE,Evanston,IL
368,El Pueblito Mexican Grill 2,1805 HOWARD ST,Evanston,IL
369,Sashimi Sashimi,640 CHURCH ST,Evanston,IL
370,Bake 425,2122 CENTRAL ST,Evanston,IL
371,Patisserie Coralie,600 DAVIS ST,Evanston,IL
372,Little Beans Cafe,430 ASBURY AVE,Evanston,IL
373,Feast and Imbibe,"1601 SIMPSON ST, UNIT C",Evanston,IL
374,Blaze Pizza,1737 SHERMAN AVE,Evanston,IL
375,Doc Popcorn,1613 SHERMAN AVE,Evanston,IL
376,Gigio's Pizzeria,1001 DAVIS ST,Evanston,IL
377,Delbe's Corner,1100 DAVIS ST,Evanston,IL
378,Jamba Juice #393,630 DAVIS ST,Evanston,IL
379,Uncle Randy's Jamaican/American Cuizine,1623 SIMPSON ST,Evanston,IL
380,Domino's Pizza,911 FOSTER ST,Evanston,IL
381,Bagel Art,615 DEMPSTER ST,Evanston,IL
382,The Unicorn Cafe,1723 SHERMAN AVE,Evanston,IL
383,Amazing Kale Burger,741 HOWARD ST,Evanston,IL
384,D & D Dogs Inc,825 NOYES ST,Evanston,IL
385,Freshii,1596 SHERMAN AVE,Evanston,IL
386,Curts Cafe South,1813 DEMPSTER ST,Evanston,IL
387,Linz & Vail,2012 CENTRAL ST,Evanston,IL
388,Koco Table Evanston Inc,720 1/2 CLARK ST,Evanston,IL
389,Phillyz Cheesesteaks and More,1903 CHURCH ST,Evanston,IL
