,city,city,area,state,city,city,name,elevation
0,College.,,,,College.,,,
1,,,,,,,,
2,constituted,most,headquarters,to,constituted,most,,
3,city,partition,and,the,city,partition,,
4,Mymensingh,,,,Mymensingh,,,
5,,,,,,,,
6,city,Aga,marked,the,city,Aga,,
7,is,April–May,°C,in,is,April–May,,
8,,,,,,,,
9,fibre',"pullers,",a,of,fibre',"pullers,","Mymensingh,",have
10,shopping,,of,manufactured,shopping,,,
11,,,,,,,,
12,,,,,,,,
13,known,,,,known,,,
14,,,,,,,,
15,,,,,,,,
16,,,,,,,,
17,,,,,,,,
18,a,,,,a,,,
19,pond.,,to,Elephants,pond.,,,
20,,,,,,,,
21,living,,,,living,,,
22,,,,,,,,
23,Math,,,,Math,,,
24,,,,,,,,
25,city,in,tribal.,of,city,in,,
26,,,,,,,,
27,the,,,,the,,,
28,,,,,,,,
29,thousands,Information,up,came,thousands,Information,late,
30,in,,,,in,,,
31,Amrita,,,,Amrita,,,
32,Brahmaputra,,,,Brahmaputra,,,
33,the,,,,the,,,
34,River,,operated,Agricultural,River,,,
35,,,,,,,,
36,in,,former,of,in,,,
37,adults,who,for,Physician,adults,who,,
38,,,,,,,,
39,for,,,,for,,,
40,,,,,,,,
41,,,,,,,,
42,,,,,,,,
43,,,,,,,,
44,,,,,,,,
45,,,,,,,,
46,,,,,,,,
47,,,,,,,,
48,,,,,,,,
49,,,,,,,,
50,,,,,,,,
51,,,,,,,,
52,,,,,,,,
53,,,,,,,,
54,,,,,,,,
55,,,,,,,,
56,,,,,,,,
57,,,,,,,,
58,,,,,,,,
59,,,,,,,,
60,,,,,,,,
61,,,,,,,,
62,,,,,,,,
63,,,,,,,,
64,,,,,,,,
65,from,the,between,Mymensingh,from,the,,
66,,,,,,,,
